[{"OBJECT_NAME":"AEROCUBE 6A","OBJECT_ID":"2014-033AM","EPOCH":"2026-03-09T22:20:23.815680","MEAN_MOTION":14.96848607,"ECCENTRICITY":0.00387302,"INCLINATION":97.7128,"RA_OF_ASC_NODE":237.0691,"ARG_OF_PERICENTER":349.0559,"MEAN_ANOMALY":10.9816,"EPHEMERIS_TYPE":0,"CLASSIFICATION_TYPE":"U","NORAD_CAT_ID":40045,"ELEMENT_SET_NO":999,"REV_AT_EPOCH":63176,"BSTAR":0.00067890448,"MEAN_MOTION_DOT":7.845e-5,"MEAN_MOTION_DDOT":0},{"OBJECT_NAME":"STARLINK-5483","OBJECT_ID":"2023-021R","EPOCH":"2026-03-09T17:39:19.367712","MEAN_MOTION":14.98333011,"ECCENTRICITY":0.00032166,"INCLINATION":70.0008,"RA_OF_ASC_NODE":184.5203,"ARG_OF_PERICENTER":267.54,"MEAN_ANOMALY":92.5391,"EPHEMERIS_TYPE":0,"CLASSIFICATION_TYPE":"U","NORAD_CAT_ID":55643,"ELEMENT_SET_NO":999,"REV_AT_EPOCH":16879,"BSTAR":3.5601145e-5,"MEAN_MOTION_DOT":3.32e-6,"MEAN_MOTION_DDOT":0}]
